OBJECT_NAME,OBJECT_ID,EPOCH,MEAN_MOTION,ECCENTRICITY,INCLINATION,RA_OF_ASC_NODE,ARG_OF_PERICENTER,MEAN_ANOMALY,EPHEMERIS_TYPE,CLASSIFICATION_TYPE,NORAD_CAT_ID,ELEMENT_SET_NO,REV_AT_EPOCH,BSTAR,MEAN_MOTION_DOT,MEAN_MOTION_DDOT
ONEWEB-0640,2023-029J,2026-07-02T16:51:14.710176,13.14502147,.0001291,87.8963,286.6497,106.1981,253.9290,0,U,55804,999,16145,-.57626E-3,-.201E-5,0
ONEWEB-0641,2023-029K,2026-07-02T19:07:46.473024,13.19726781,.0001953,87.9193,301.8571,105.9340,254.2008,0,U,55805,999,16097,.70892E-4,.41E-6,0
ONEWEB-0642,2023-029L,2026-07-02T19:00:58.030848,13.19726051,.0002257,87.9183,301.8686,121.8388,238.2965,0,U,55806,999,16096,.11282E-3,.58E-6,0
ONEWEB-0643,2023-029M,2026-07-02T19:47:05.358048,13.14501030,.0002446,87.8962,286.6124,115.2597,244.8786,0,U,55807,999,16144,.4272E-3,.171E-5,0
ONEWEB-0644,2023-029N,2026-07-02T18:54:08.461152,13.19725700,.0002068,87.9183,301.8707,110.2793,249.8562,0,U,55808,999,16096,-.81983E-4,-.2E-6,0
ONEWEB-0645,2023-029P,2026-07-02T19:25:59.013120,13.19724853,.0001718,87.9179,301.8631,112.7652,247.3662,0,U,55809,999,16096,.50529E-4,.33E-6,0
ONEWEB-0646,2023-029Q,2026-07-02T19:51:00.137952,13.19725637,.000211,87.9184,301.8602,108.3129,251.8234,0,U,55810,999,16095,.1063E-3,.56E-6,0
ONEWEB-0648,2023-029R,2026-07-02T17:11:48.560064,13.14503114,.0001874,87.8974,286.6090,129.2467,230.8830,0,U,55811,999,16143,.10477E-3,.52E-6,0
ONEWEB-0649,2023-029S,2026-07-02T18:38:12.298272,13.19726356,.0001818,87.9184,301.8681,108.2398,251.8933,0,U,55812,999,16098,-.17994E-4,.6E-7,0
ONEWEB-0650,2023-029T,2026-07-02T20:20:33.383040,13.19725538,.0002119,87.9185,301.8565,117.8281,242.3067,0,U,55813,999,16096,.63382E-4,.38E-6,0
ONEWEB-0652,2023-029U,2026-07-02T20:23:37.053024,13.14501718,.0002046,87.8971,286.5891,96.4529,263.6834,0,U,55814,999,16142,-.37542E-3,-.126E-5,0
ONEWEB-0653,2023-029V,2026-07-02T20:00:46.343808,13.14500836,.0001913,87.8973,286.5904,98.3692,261.7654,0,U,55815,999,16145,-.14329E-3,-.4E-6,0
ONEWEB-0654,2023-029W,2026-07-02T19:53:55.294080,13.14500983,.0001976,87.8972,286.5878,90.2030,269.9326,0,U,55816,999,16147,.1483E-3,.68E-6,0
ONEWEB-0656,2023-029X,2026-07-02T19:26:48.414912,13.20773463,.0002054,87.9193,271.3168,87.6498,272.4870,0,U,55817,999,16321,-.15012E-3,-.48E-6,0
ONEWEB-0657,2023-029Y,2026-07-02T20:13:45.124032,13.19725423,.0002534,87.9191,301.8560,92.5738,267.5685,0,U,55818,999,16097,.81766E-4,.46E-6,0
ONEWEB-0658,2023-029Z,2026-07-02T20:06:55.791072,13.19725465,.0002039,87.9192,301.8338,112.0108,248.1242,0,U,55819,999,16098,.6162E-4,.38E-6,0
ONEWEB-0660,2023-029AA,2026-07-02T19:21:57.157056,13.14501207,.000173,87.8981,286.5869,107.1656,252.9663,0,U,55820,999,16145,.41832E-3,.168E-5,0
ONEWEB-0661,2023-029AB,2026-07-02T20:12:12.375360,13.14501643,.0001625,87.8968,286.6221,102.8004,257.3307,0,U,55821,999,16144,-.22734E-3,-.71E-6,0
ONEWEB-0662,2023-029AC,2026-07-02T17:23:13.484832,13.14502740,.0001719,87.8961,286.6513,107.0866,253.0452,0,U,55822,999,16147,-.62794E-5,.1E-6,0
ONEWEB-0663,2023-029AD,2026-07-02T16:35:31.769088,13.20870666,.0001884,87.9198,271.4123,112.6622,247.4710,0,U,55823,999,16319,-.22171E-4,.4E-7,0
ONEWEB-0664,2023-029AE,2026-07-02T11:51:05.910624,13.20771661,.0001593,87.9182,271.4308,94.5969,265.5346,0,U,55824,999,16316,.84251E-4,.47E-6,0
ONEWEB-0665,2023-029AF,2026-07-02T20:07:38.140896,13.14501157,.0001761,87.8964,286.6037,109.5348,250.5972,0,U,55825,999,16146,-.34332E-4,0,0
ONEWEB-0666,2023-029AG,2026-07-02T15:19:33.990240,13.20772447,.0002697,87.9184,271.3920,93.3545,266.7897,0,U,55826,999,16319,.16419E-3,.8E-6,0
ONEWEB-0667,2023-029AH,2026-07-02T17:01:23.062080,13.20772904,.0001811,87.9184,271.3380,101.3336,258.8000,0,U,55827,999,16319,.73068E-4,.43E-6,0
ONEWEB-0669,2023-029AJ,2026-07-02T16:54:06.219360,13.20772601,.0001917,87.9194,271.3494,83.6376,276.4976,0,U,55828,999,16319,-.11057E-3,-.32E-6,0
ONEWEB-0670,2023-029AK,2026-07-02T19:35:39.812064,13.14500738,.0001529,87.8961,286.6251,99.0899,261.0403,0,U,55829,999,16148,.78236E-3,.303E-5,0
ONEWEB-0671,2023-029AL,2026-07-02T20:00:05.656320,13.19724456,.0001801,87.9186,301.8594,103.4625,256.6708,0,U,55830,999,16096,.41649E-4,.3E-6,0
ONEWEB-0672,2023-029AM,2026-07-02T11:19:32.866752,13.20772840,.0002187,87.9197,271.3894,94.3679,265.7705,0,U,55831,999,16316,-.7949E-4,-.19E-6,0
ONEWEB-0673,2023-029AN,2026-07-02T19:27:05.972256,13.19724361,.0001832,87.9190,301.8565,102.5496,257.5842,0,U,55832,999,16096,-.29213E-4,.1E-7,0
ONEWEB-0674,2023-029AP,2026-07-02T17:00:21.720672,13.14501092,.0001599,87.8961,286.6235,97.5260,262.6051,0,U,55833,999,16145,-.50509E-3,-.174E-5,0
