ONEWEB-0640             
1 55804U 23029J   26183.70225359 -.00000201  00000+0 -57626-3 0  9994
2 55804  87.8963 286.6497 0001291 106.1981 253.9290 13.14502147161451
ONEWEB-0641             
1 55805U 23029K   26183.79706566  .00000041  00000+0  70892-4 0  9999
2 55805  87.9193 301.8571 0001953 105.9340 254.2008 13.19726781160976
ONEWEB-0642             
1 55806U 23029L   26183.79233832  .00000058  00000+0  11282-3 0  9996
2 55806  87.9183 301.8686 0002257 121.8388 238.2965 13.19726051160963
ONEWEB-0643             
1 55807U 23029M   26183.82436757  .00000171  00000+0  42720-3 0  9999
2 55807  87.8962 286.6124 0002446 115.2597 244.8786 13.14501030161445
ONEWEB-0644             
1 55808U 23029N   26183.78759793 -.00000020  00000+0 -81983-4 0  9993
2 55808  87.9183 301.8707 0002068 110.2793 249.8562 13.19725700160962
ONEWEB-0645             
1 55809U 23029P   26183.80971080  .00000033  00000+0  50529-4 0  9996
2 55809  87.9179 301.8631 0001718 112.7652 247.3662 13.19724853160968
ONEWEB-0646             
1 55810U 23029Q   26183.82708493  .00000056  00000+0  10630-3 0  9999
2 55810  87.9184 301.8602 0002110 108.3129 251.8234 13.19725637160956
ONEWEB-0648             
1 55811U 23029R   26183.71653426  .00000052  00000+0  10477-3 0  9998
2 55811  87.8974 286.6090 0001874 129.2467 230.8830 13.14503114161439
ONEWEB-0649             
1 55812U 23029S   26183.77653123  .00000006  00000+0 -17994-4 0  9991
2 55812  87.9184 301.8681 0001818 108.2398 251.8933 13.19726356160984
ONEWEB-0650             
1 55813U 23029T   26183.84760860  .00000038  00000+0  63382-4 0  9993
2 55813  87.9185 301.8565 0002119 117.8281 242.3067 13.19725538160961
ONEWEB-0652             
1 55814U 23029U   26183.84973441 -.00000126  00000+0 -37542-3 0  9993
2 55814  87.8971 286.5891 0002046  96.4529 263.6834 13.14501718161428
ONEWEB-0653             
1 55815U 23029V   26183.83386972 -.00000040  00000+0 -14329-3 0  9993
2 55815  87.8973 286.5904 0001913  98.3692 261.7654 13.14500836161452
ONEWEB-0654             
1 55816U 23029W   26183.82911220  .00000068  00000+0  14830-3 0  9998
2 55816  87.8972 286.5878 0001976  90.2030 269.9326 13.14500983161479
ONEWEB-0656             
1 55817U 23029X   26183.81028258 -.00000048  00000+0 -15012-3 0  9991
2 55817  87.9193 271.3168 0002054  87.6498 272.4870 13.20773463163215
ONEWEB-0657             
1 55818U 23029Y   26183.84288338  .00000046  00000+0  81766-4 0  9998
2 55818  87.9191 301.8560 0002534  92.5738 267.5685 13.19725423160974
ONEWEB-0658             
1 55819U 23029Z   26183.83814573  .00000038  00000+0  61620-4 0  9992
2 55819  87.9192 301.8338 0002039 112.0108 248.1242 13.19725465160989
ONEWEB-0660             
1 55820U 23029AA  26183.80691154  .00000168  00000+0  41832-3 0  9995
2 55820  87.8981 286.5869 0001730 107.1656 252.9663 13.14501207161458
ONEWEB-0661             
1 55821U 23029AB  26183.84180990 -.00000071  00000+0 -22734-3 0  9996
2 55821  87.8968 286.6221 0001625 102.8004 257.3307 13.14501643161446
ONEWEB-0662             
1 55822U 23029AC  26183.72446163  .00000010  00000+0 -62794-5 0  9995
2 55822  87.8961 286.6513 0001719 107.0866 253.0452 13.14502740161477
ONEWEB-0663             
1 55823U 23029AD  26183.69133992  .00000004  00000+0 -22171-4 0  9992
2 55823  87.9198 271.4123 0001884 112.6622 247.4710 13.20870666163192
ONEWEB-0664             
1 55824U 23029AE  26183.49381841  .00000047  00000+0  84251-4 0  9992
2 55824  87.9182 271.4308 0001593  94.5969 265.5346 13.20771661163168
ONEWEB-0665             
1 55825U 23029AF  26183.83863589  .00000000  00000+0 -34332-4 0  9990
2 55825  87.8964 286.6037 0001761 109.5348 250.5972 13.14501157161462
ONEWEB-0666             
1 55826U 23029AG  26183.63858785  .00000080  00000+0  16419-3 0  9993
2 55826  87.9184 271.3920 0002697  93.3545 266.7897 13.20772447163194
ONEWEB-0667             
1 55827U 23029AH  26183.70929470  .00000043  00000+0  73068-4 0  9995
2 55827  87.9184 271.3380 0001811 101.3336 258.8000 13.20772904163196
ONEWEB-0669             
1 55828U 23029AJ  26183.70423865 -.00000032  00000+0 -11057-3 0  9992
2 55828  87.9194 271.3494 0001917  83.6376 276.4976 13.20772601163199
ONEWEB-0670             
1 55829U 23029AK  26183.81643301  .00000303  00000+0  78236-3 0  9995
2 55829  87.8961 286.6251 0001529  99.0899 261.0403 13.14500738161489
ONEWEB-0671             
1 55830U 23029AL  26183.83339880  .00000030  00000+0  41649-4 0  9999
2 55830  87.9186 301.8594 0001801 103.4625 256.6708 13.19724456160961
ONEWEB-0672             
1 55831U 23029AM  26183.47190818 -.00000019  00000+0 -79490-4 0  9990
2 55831  87.9197 271.3894 0002187  94.3679 265.7705 13.20772840163168
ONEWEB-0673             
1 55832U 23029AN  26183.81048579  .00000001  00000+0 -29213-4 0  9993
2 55832  87.9190 301.8565 0001832 102.5496 257.5842 13.19724361160960
ONEWEB-0674             
1 55833U 23029AP  26183.70858473 -.00000174  00000+0 -50509-3 0  9997
2 55833  87.8961 286.6235 0001599  97.5260 262.6051 13.14501092161455
